[{"OBJECT_NAME":"ICEYE-X31","OBJECT_ID":"2023-174AJ","EPOCH":"2026-03-09T23:06:20.433600","MEAN_MOTION":15.30950809,"ECCENTRICITY":0.00015021,"INCLINATION":97.3851,"RA_OF_ASC_NODE":144.9524,"ARG_OF_PERICENTER":332.6589,"MEAN_ANOMALY":27.4572,"EPHEMERIS_TYPE":0,"CLASSIFICATION_TYPE":"U","NORAD_CAT_ID":58288,"ELEMENT_SET_NO":999,"REV_AT_EPOCH":12955,"BSTAR":0.00066288467,"MEAN_MOTION_DOT":0.00019777,"MEAN_MOTION_DDOT":0},{"OBJECT_NAME":"STARLINK-34596","OBJECT_ID":"2025-144J","EPOCH":"2026-03-09T21:39:20.340000","MEAN_MOTION":15.30205408,"ECCENTRICITY":0.0001675,"INCLINATION":53.1598,"RA_OF_ASC_NODE":180.1105,"ARG_OF_PERICENTER":49.236,"MEAN_ANOMALY":310.8786,"EPHEMERIS_TYPE":0,"CLASSIFICATION_TYPE":"U","NORAD_CAT_ID":64732,"ELEMENT_SET_NO":999,"REV_AT_EPOCH":3974,"BSTAR":0.0014048153,"MEAN_MOTION_DOT":0.00041487,"MEAN_MOTION_DDOT":0}]
